{"type": "FeatureCollection", "features": [{"type": "Feature", "properties": {"norad_id": 26766, "name": "INTELSAT 10 (IS-10)", "group": "intelsat", "lat": -1.4531736258401502, "lon": 51.39170361713826, "alt_km": 36142.77121032691, "timestamp": "2025-12-21T14:40:47.578087+00:00", "meta": {"OBJECT_NAME": "INTELSAT 10 (IS-10)", "OBJECT_ID": "2001-019A", "EPOCH": "2025-12-20T17:29:18.796128", "MEAN_MOTION": 0.9907436, "ECCENTRICITY": 0.00077475, "INCLINATION": 8.6473, "RA_OF_ASC_NODE": 61.0766, "ARG_OF_PERICENTER": 228.8053, "MEAN_ANOMALY": 166.3968, "EPHEMERIS_TYPE": 0, "CLASSIFICATION_TYPE": "U", "NORAD_CAT_ID": 26766, "ELEMENT_SET_NO": 999, "REV_AT_EPOCH": 4381, "BSTAR": 0, "MEAN_MOTION_DOT": -1.02e-06, "MEAN_MOTION_DDOT": 0}, "tle": {"line1": "1 26766U 01019A   25354.72868977 -.00000102  00000+0  00000+0 0  9993", "line2": "2 26766   8.6473  61.0766 0007747 228.8053 166.3968  0.99074360 43819"}}, "geometry": {"type": "Point", "coordinates": [51.39170361713826, -1.4531736258401502]}}, {"type": "Feature", "properties": {"norad_id": 26900, "name": "INTELSAT 902 (IS-902)", "group": "intelsat", "lat": -0.665084615366338, "lon": -99.55883793583797, "alt_km": 35768.043981159804, "timestamp": "2025-12-21T14:40:47.578111+00:00", "meta": {"OBJECT_NAME": "INTELSAT 902 (IS-902)", "OBJECT_ID": "2001-039A", "EPOCH": "2025-12-15T13:09:02.081664", "MEAN_MOTION": 1.0027087, "ECCENTRICITY": 0.00045028, "INCLINATION": 5.6536, "RA_OF_ASC_NODE": 74.0372, "ARG_OF_PERICENTER": 189.6359, "MEAN_ANOMALY": 327.9329, "EPHEMERIS_TYPE": 0, "CLASSIFICATION_TYPE": "U", "NORAD_CAT_ID": 26900, "ELEMENT_SET_NO": 999, "REV_AT_EPOCH": 8885, "BSTAR": 0, "MEAN_MOTION_DOT": -2.65e-06, "MEAN_MOTION_DDOT": 0}, "tle": {"line1": "1 26900U 01039A   25349.54794076 -.00000265  00000+0  00000+0 0  9997", "line2": "2 26900   5.6536  74.0372 0004502 189.6359 327.9329  1.00270870 88858"}}, "geometry": {"type": "Point", "coordinates": [-99.55883793583797, -0.665084615366338]}}, {"type": "Feature", "properties": {"norad_id": 27380, "name": "INTELSAT 904 (IS-904)", "group": "intelsat", "lat": -3.037365920746613, "lon": -81.04587237882986, "alt_km": 35780.92101265679, "timestamp": "2025-12-21T14:40:47.578127+00:00", "meta": {"OBJECT_NAME": "INTELSAT 904 (IS-904)", "OBJECT_ID": "2002-007A", "EPOCH": "2025-12-21T02:46:31.545696", "MEAN_MOTION": 1.00270749, "ECCENTRICITY": 0.00018549, "INCLINATION": 6.4742, "RA_OF_ASC_NODE": 71.3362, "ARG_OF_PERICENTER": 249.0229, "MEAN_ANOMALY": 139.7067, "EPHEMERIS_TYPE": 0, "CLASSIFICATION_TYPE": "U", "NORAD_CAT_ID": 27380, "ELEMENT_SET_NO": 999, "REV_AT_EPOCH": 4998, "BSTAR": 0, "MEAN_MOTION_DOT": -2.07e-06, "MEAN_MOTION_DDOT": 0}, "tle": {"line1": "1 27380U 02007A   25355.11564289 -.00000207  00000+0  00000+0 0  9993", "line2": "2 27380   6.4742  71.3362 0001854 249.0229 139.7067  1.00270749 49986"}}, "geometry": {"type": "Point", "coordinates": [-81.04587237882986, -3.037365920746613]}}, {"type": "Feature", "properties": {"norad_id": 27426, "name": "DIRECTV 5 (TEMPO 1)", "group": "intelsat", "lat": 3.7077239283607066, "lon": -159.45066112216836, "alt_km": 35782.39665145771, "timestamp": "2025-12-21T14:40:47.578141+00:00", "meta": {"OBJECT_NAME": "DIRECTV 5 (TEMPO 1)", "OBJECT_ID": "2002-023A", "EPOCH": "2025-12-21T07:19:55.299360", "MEAN_MOTION": 1.00271777, "ECCENTRICITY": 0.00031368, "INCLINATION": 4.4225, "RA_OF_ASC_NODE": 77.5526, "ARG_OF_PERICENTER": 199.0334, "MEAN_ANOMALY": 173.4018, "EPHEMERIS_TYPE": 0, "CLASSIFICATION_TYPE": "U", "NORAD_CAT_ID": 27426, "ELEMENT_SET_NO": 999, "REV_AT_EPOCH": 8634, "BSTAR": 0, "MEAN_MOTION_DOT": -3.7e-07, "MEAN_MOTION_DDOT": 0}, "tle": {"line1": "1 27426U 02023A   25355.30550115 -.00000037  00000+0  00000+0 0  9997", "line2": "2 27426   4.4225  77.5526 0003136 199.0334 173.4018  1.00271777 86341"}}, "geometry": {"type": "Point", "coordinates": [-159.45066112216836, 3.7077239283607066]}}, {"type": "Feature", "properties": {"norad_id": 27438, "name": "INTELSAT 905 (IS-905)", "group": "intelsat", "lat": 6.190346413111797, "lon": 173.4594997172428, "alt_km": 35787.36239264666, "timestamp": "2025-12-21T14:40:47.578154+00:00", "meta": {"OBJECT_NAME": "INTELSAT 905 (IS-905)", "OBJECT_ID": "2002-027A", "EPOCH": "2025-12-21T06:10:26.730048", "MEAN_MOTION": 1.0027273, "ECCENTRICITY": 0.00026771, "INCLINATION": 6.3055, "RA_OF_ASC_NODE": 71.958, "ARG_OF_PERICENTER": 203.5903, "MEAN_ANOMALY": 129.9356, "EPHEMERIS_TYPE": 0, "CLASSIFICATION_TYPE": "U", "NORAD_CAT_ID": 27438, "ELEMENT_SET_NO": 999, "REV_AT_EPOCH": 4957, "BSTAR": 0, "MEAN_MOTION_DOT": 1.12e-06, "MEAN_MOTION_DDOT": 0}, "tle": {"line1": "1 27438U 02027A   25355.25725382  .00000112  00000+0  00000+0 0  9991", "line2": "2 27438   6.3055  71.9580 0002677 203.5903 129.9356  1.00272730 49571"}}, "geometry": {"type": "Point", "coordinates": [173.4594997172428, 6.190346413111797]}}, {"type": "Feature", "properties": {"norad_id": 27445, "name": "GALAXY 3C (G-3C)", "group": "intelsat", "lat": 2.294998570386842, "lon": -144.17481133486854, "alt_km": 35783.04592333196, "timestamp": "2025-12-21T14:40:47.578167+00:00", "meta": {"OBJECT_NAME": "GALAXY 3C (G-3C)", "OBJECT_ID": "2002-030A", "EPOCH": "2025-12-21T06:33:13.647168", "MEAN_MOTION": 1.00272056, "ECCENTRICITY": 0.00011408, "INCLINATION": 3.2837, "RA_OF_ASC_NODE": 80.417, "ARG_OF_PERICENTER": 79.5681, "MEAN_ANOMALY": 293.5595, "EPHEMERIS_TYPE": 0, "CLASSIFICATION_TYPE": "U", "NORAD_CAT_ID": 27445, "ELEMENT_SET_NO": 999, "REV_AT_EPOCH": 4471, "BSTAR": 0, "MEAN_MOTION_DOT": -1.32e-06, "MEAN_MOTION_DDOT": 0}, "tle": {"line1": "1 27445U 02030A   25355.27307462 -.00000132  00000+0  00000+0 0  9993", "line2": "2 27445   3.2837  80.4170 0001140  79.5681 293.5595  1.00272056 44716"}}, "geometry": {"type": "Point", "coordinates": [-144.17481133486854, 2.294998570386842]}}, {"type": "Feature", "properties": {"norad_id": 27513, "name": "INTELSAT 906 (IS-906)", "group": "intelsat", "lat": -4.64657774893456, "lon": 14.939512417218879, "alt_km": 35791.03905586065, "timestamp": "2025-12-21T14:40:47.578179+00:00", "meta": {"OBJECT_NAME": "INTELSAT 906 (IS-906)", "OBJECT_ID": "2002-041A", "EPOCH": "2025-12-21T04:56:34.091232", "MEAN_MOTION": 1.00272969, "ECCENTRICITY": 0.00063182, "INCLINATION": 5.3511, "RA_OF_ASC_NODE": 75.1309, "ARG_OF_PERICENTER": 199.595, "MEAN_ANOMALY": 313.578, "EPHEMERIS_TYPE": 0, "CLASSIFICATION_TYPE": "U", "NORAD_CAT_ID": 27513, "ELEMENT_SET_NO": 999, "REV_AT_EPOCH": 8524, "BSTAR": 0, "MEAN_MOTION_DOT": 3.2e-07, "MEAN_MOTION_DDOT": 0}, "tle": {"line1": "1 27513U 02041A   25355.20595013  .00000032  00000+0  00000+0 0  9993", "line2": "2 27513   5.3511  75.1309 0006318 199.5950 313.5780  1.00272969 85248"}}, "geometry": {"type": "Point", "coordinates": [14.939512417218879, -4.64657774893456]}}, {"type": "Feature", "properties": {"norad_id": 27954, "name": "GALAXY 13 (HORIZONS-1)", "group": "intelsat", "lat": 0.933292553425235, "lon": 160.5675419444193, "alt_km": 35789.00951296555, "timestamp": "2025-12-21T14:40:47.578191+00:00", "meta": {"OBJECT_NAME": "GALAXY 13 (HORIZONS-1)", "OBJECT_ID": "2003-044A", "EPOCH": "2025-12-21T06:02:32.059680", "MEAN_MOTION": 1.00270142, "ECCENTRICITY": 0.00023729, "INCLINATION": 0.9585, "RA_OF_ASC_NODE": 86.3613, "ARG_OF_PERICENTER": 179.3273, "MEAN_ANOMALY": 124.9967, "EPHEMERIS_TYPE": 0, "CLASSIFICATION_TYPE": "U", "NORAD_CAT_ID": 27954, "ELEMENT_SET_NO": 999, "REV_AT_EPOCH": 4478, "BSTAR": 0, "MEAN_MOTION_DOT": 1.55e-06, "MEAN_MOTION_DDOT": 0}, "tle": {"line1": "1 27954U 03044A   25355.25175995  .00000155  00000+0  00000+0 0  9990", "line2": "2 27954   0.9585  86.3613 0002372 179.3273 124.9967  1.00270142 44787"}}, "geometry": {"type": "Point", "coordinates": [160.5675419444193, 0.933292553425235]}}, {"type": "Feature", "properties": {"norad_id": 28358, "name": "INTELSAT 10-02", "group": "intelsat", "lat": -0.030408400653244065, "lon": -50.3406102914846, "alt_km": 35781.612971270486, "timestamp": "2025-12-21T14:40:47.578204+00:00", "meta": {"OBJECT_NAME": "INTELSAT 10-02", "OBJECT_ID": "2004-022A", "EPOCH": "2025-12-21T02:55:15.708576", "MEAN_MOTION": 1.00272896, "ECCENTRICITY": 9.822e-05, "INCLINATION": 0.0211, "RA_OF_ASC_NODE": 73.8593, "ARG_OF_PERICENTER": 233.9977, "MEAN_ANOMALY": 184.9424, "EPHEMERIS_TYPE": 0, "CLASSIFICATION_TYPE": "U", "NORAD_CAT_ID": 28358, "ELEMENT_SET_NO": 999, "REV_AT_EPOCH": 7877, "BSTAR": 0, "MEAN_MOTION_DOT": 1.3e-07, "MEAN_MOTION_DDOT": 0}, "tle": {"line1": "1 28358U 04022A   25355.12170959  .00000013  00000+0  00000+0 0  9990", "line2": "2 28358   0.0211  73.8593 0000982 233.9977 184.9424  1.00272896 78772"}}, "geometry": {"type": "Point", "coordinates": [-50.3406102914846, -0.030408400653244065]}}, {"type": "Feature", "properties": {"norad_id": 28626, "name": "XM-3 (RHYTHM)", "group": "intelsat", "lat": -0.15798571018045235, "lon": 22.758380096912312, "alt_km": 36153.140011792246, "timestamp": "2025-12-21T14:40:47.578216+00:00", "meta": {"OBJECT_NAME": "XM-3 (RHYTHM)", "OBJECT_ID": "2005-008A", "EPOCH": "2025-12-21T04:59:11.340096", "MEAN_MOTION": 0.98949881, "ECCENTRICITY": 0.00019677, "INCLINATION": 0.1954, "RA_OF_ASC_NODE": 82.002, "ARG_OF_PERICENTER": 277.7802, "MEAN_ANOMALY": 239.0985, "EPHEMERIS_TYPE": 0, "CLASSIFICATION_TYPE": "U", "NORAD_CAT_ID": 28626, "ELEMENT_SET_NO": 999, "REV_AT_EPOCH": 4083, "BSTAR": 0, "MEAN_MOTION_DOT": 8.3e-07, "MEAN_MOTION_DDOT": 0}, "tle": {"line1": "1 28626U 05008A   25355.20777014  .00000083  00000+0  00000+0 0  9994", "line2": "2 28626   0.1954  82.0020 0001967 277.7802 239.0985  0.98949881 40830"}}, "geometry": {"type": "Point", "coordinates": [22.758380096912312, -0.15798571018045235]}}]}